NORAD_CAT_ID,OBJECT_NAME,OBJECT_TYPE,EPOCH,MEAN_MOTION,ECCENTRICITY,INCLINATION,RA_OF_ASC_NODE,ARG_OF_PERICENTER,MEAN_ANOMALY,BSTAR,MEAN_MOTION_DOT,MEAN_MOTION_DDOT,TLE_LINE0,TLE_LINE1,TLE_LINE2,SEMIMAJOR_AXIS,PERIOD,APOGEE,PERIGEE,DECAYED
49161.0,STARLINK-3080,PAYLOAD,2022-01-31 14:00:01,14.98302975,0.0004001,69.9997,111.7211,280.7892,44.5073,0.0020818,0.00024819,0.0,0 STARLINK-3080,1 49161U 21082AH  22031.58335648  .00024819  00000-0  20818-2 0  9999,2 49161  69.9997 111.7211 0004001 280.7892  44.5073 14.98302975  3573,6950.276,96.109,574.922,569.361,0.0
49161.0,STARLINK-3080,PAYLOAD,2022-01-31 22:00:01,14.98324561,0.0003948,69.9993,110.8805,278.6976,44.0622,-0.0021803,-0.0002601,0.0,0 STARLINK-3080,1 49161U 21082AH  22031.91668981 -.00026010  00000-0 -21803-2 0  9997,2 49161  69.9993 110.8805 0003948 278.6976  44.0622 14.98324561  3565,6950.21,96.107,574.819,569.331,0.0
49161.0,STARLINK-3080,PAYLOAD,2022-02-01 06:00:00,14.98335127,0.0003962,69.9995,110.0401,275.5299,44.6282,-0.00037188,-4.528e-05,0.0,0 STARLINK-3080,1 49161U 21082AH  22032.25001157 -.00004528  00000-0 -37188-3 0  9995,2 49161  69.9995 110.0401 0003962 275.5299  44.6282 14.98335127 22751,6950.177,96.107,574.7959999999998,569.288,0.0
49161.0,STARLINK-3080,PAYLOAD,2022-02-01 14:00:01,14.98311722,0.0004013,69.9995,109.1994,280.5996,37.1142,0.0030356,0.00036301,0.0,0 STARLINK-3080,1 49161U 21082AH  22032.58335648  .00036301  00000-0  30356-2 0  9997,2 49161  69.9995 109.1994 0004013 280.5996  37.1142 14.98311722  3560,6950.249,96.108,574.904,569.325,0.0
49161.0,STARLINK-3080,PAYLOAD,2022-02-01 22:00:00,14.98330777,0.0004003,70.0,108.3566,273.415,41.6709,-0.00018752,-2.33e-05,0.0,0 STARLINK-3080,1 49161U 21082AH  22032.91667824 -.00002330  00000-0 -18752-3 0  9992,2 49161  70.0000 108.3566 0004003 273.4150  41.6709 14.98330777 22851,6950.19,96.107,574.8380000000002,569.273,0.0
49161.0,STARLINK-3080,PAYLOAD,2022-02-02 06:00:00,14.98346779,0.0004028,69.9991,107.5183,274.925,37.6741,-0.00090753,-0.0001091,0.0,0 STARLINK-3080,1 49161U 21082AH  22033.25001157 -.00010910  00000-0 -90753-3 0  9995,2 49161  69.9991 107.5183 0004028 274.9250  37.6741 14.98346779 22903,6950.141,96.106,574.806,569.206,0.0
49161.0,STARLINK-3080,PAYLOAD,2022-02-02 14:00:01,14.98321541,0.000409,69.999,106.6776,279.7851,30.3217,0.0029065,0.00034754,0.0,0 STARLINK-3080,1 49161U 21082AH  22033.58334491  .00034754  00000-0  29065-2 0  9998,2 49161  69.9990 106.6776 0004090 279.7851  30.3217 14.98321541  3579,6950.219,96.108,574.927,569.241,0.0
49161.0,STARLINK-3080,PAYLOAD,2022-02-02 22:00:00,14.98342726,0.0004077,69.9986,105.8369,277.2095,30.3909,-0.0011405,-0.00013681,0.0,0 STARLINK-3080,1 49161U 21082AH  22033.91667824 -.00013681  00000-0 -11405-2 0  9991,2 49161  69.9986 105.8369 0004077 277.2095  30.3909 14.98342726  3588,6950.154,96.106,574.852,569.185,0.0
49161.0,STARLINK-3080,PAYLOAD,2022-02-03 06:00:00,14.98371357,0.0004064,69.9988,104.9963,274.6299,30.4569,-0.0049193999999999,-0.00058372,0.0,0 STARLINK-3080,1 49161U 21082AH  22034.25001157 -.00058372  00000-0 -49194-2 0  9992,2 49161  69.9988 104.9963 0004064 274.6299  30.4569 14.98371357 23052,6950.065,96.104,574.755,569.105,0.0
49161.0,STARLINK-3080,PAYLOAD,2022-02-03 14:00:01,14.98307482,0.0004059,69.9987,104.1556,279.6363,22.9644,0.003193,0.00038194,0.0,0 STARLINK-3080,1 49161U 21082AH  22034.58334491  .00038194  00000-0  31930-2 0  9995,2 49161  69.9987 104.1556 0004059 279.6363  22.9644 14.98307482  3575,6950.263000000001,96.108,574.9490000000002,569.306,0.0
49161.0,STARLINK-3080,PAYLOAD,2022-02-03 20:00:01,14.98350216,0.0004058,69.9983,103.525,278.1128,292.6516,-0.0037595,-0.00044694,0.0,0 STARLINK-3080,1 49161U 21082AH  22034.83335648 -.00044694  00000-0 -37595-2 0  9995,2 49161  69.9983 103.5250 0004058 278.1128 292.6516 14.98350216 23149,6950.13,96.106,574.816,569.175,0.0
49161.0,STARLINK-3080,PAYLOAD,2022-02-03 22:00:01,14.983279800000002,0.0004057,69.9984,103.3148,277.0081,23.1356,-0.00041199,-5.006e-05,0.0,0 STARLINK-3080,1 49161U 21082AH  22034.91668981 -.00005006  00000-0 -41199-3 0  9993,2 49161  69.9984 103.3148 0004057 277.0081  23.1356 14.98327980  3575,6950.199000000001,96.107,574.884,569.244,0.0
49161.0,STARLINK-3080,PAYLOAD,2022-02-04 06:00:00,14.9835828,0.0004087,69.9986,102.4743,274.7285,22.8279,-0.0017587,-0.00021032,0.0,0 STARLINK-3080,1 49161U 21082AH  22035.25001157 -.00021032  00000-0 -17587-2 0  9997,2 49161  69.9986 102.4743 0004087 274.7285  22.8279 14.98358280 23200,6950.105,96.105,574.811,569.13,0.0
49161.0,STARLINK-3080,PAYLOAD,2022-02-04 14:00:01,14.98335636,0.0004069,69.9984,101.6336,279.7919,15.3424,0.00037471,4.382e-05,0.0,0 STARLINK-3080,1 49161U 21082AH  22035.58335648  .00004382  00000-0  37471-3 0  9990,2 49161  69.9984 101.6336 0004069 279.7919  15.3424 14.98335636  3573,6950.175,96.107,574.868,569.212,0.0
49161.0,STARLINK-3080,PAYLOAD,2022-02-04 22:00:00,14.98301996,0.0003945,69.999,100.7929,276.7266,15.7806,-0.00024871,-3.057e-05,0.0,0 STARLINK-3080,1 49161U 21082AH  22035.91667824 -.00003057  00000-0 -24871-3 0  9991,2 49161  69.9990 100.7929 0003945 276.7266  15.7806 14.98301996 23305,6950.279,96.109,574.886,569.403,0.0
49161.0,STARLINK-3080,PAYLOAD,2022-02-05 06:00:00,14.98343525,0.0003976,69.9985,99.9526,275.3651,14.6008,-0.0023494,-0.00028026,0.0,0 STARLINK-3080,1 49161U 21082AH  22036.25001157 -.00028026  00000-0 -23494-2 0  9992,2 49161  69.9985  99.9526 0003976 275.3651  14.6008 14.98343525 23359,6950.151,96.106,574.779,569.253,0.0
49161.0,STARLINK-3080,PAYLOAD,2022-02-05 14:00:01,14.98287379,0.0003828,69.9993,99.1118,278.2974,9.156,0.0031759,0.00037967,0.0,0 STARLINK-3080,1 49161U 21082AH  22036.58334491  .00037967  00000-0  31759-2 0  9993,2 49161  69.9993  99.1118 0003828 278.2974   9.1560 14.98287379  3571,6950.325,96.11,574.85,569.529,0.0
49161.0,STARLINK-3080,PAYLOAD,2022-02-06 06:00:00,14.98346842,0.0003887,69.9985,97.4309,276.5054,5.8613,-0.0023836,-0.00028433,0.0,0 STARLINK-3080,1 49161U 21082AH  22037.25001157 -.00028433  00000-0 -23836-2 0  9995,2 49161  69.9985  97.4309 0003887 276.5054   5.8613 14.98346842 23508,6950.141,96.106,574.707,569.304,0.0
49161.0,STARLINK-3080,PAYLOAD,2022-02-06 14:00:01,14.98308326,0.0003892,69.9984,96.5903,281.6685,358.2497,0.0035888,0.0004297,0.0,0 STARLINK-3080,1 49161U 21082AH  22037.58335648  .00042970  00000-0  35888-2 0  9996,2 49161  69.9984  96.5903 0003892 281.6685 358.2497 14.98308326  3575,6950.26,96.108,574.83,569.42,0.0
49161.0,STARLINK-3080,PAYLOAD,2022-02-06 22:00:00,14.98314742,0.0003831,69.9982,95.7497,278.0526,359.2809,0.0014632999999999,0.00017404,0.0,0 STARLINK-3080,1 49161U 21082AH  22037.91667824  .00017404  00000-0  14633-2 0  9996,2 49161  69.9982  95.7497 0003831 278.0526 359.2809 14.98314742  3565,6950.24,96.108,574.768,569.442,0.0
49161.0,STARLINK-3080,PAYLOAD,2022-02-07 06:00:00,14.98355345,0.000388,69.9986,94.9091,276.5682,358.2291,-0.0025777,-0.00030738,0.0,0 STARLINK-3080,1 49161U 21082AH  22038.25001157 -.00030738  00000-0 -25777-2 0  9993,2 49161  69.9986  94.9091 0003880 276.5682 358.2291 14.98355345 23650,6950.115,96.105,574.6759999999998,569.283,0.0
49161.0,STARLINK-3080,PAYLOAD,2022-02-07 14:00:01,14.98319348,0.0003919,69.9985,94.0685,281.5005,350.7996,0.0032834,0.00039296,0.0,0 STARLINK-3080,1 49161U 21082AH  22038.58334491  .00039296  00000-0  32834-2 0  9997,2 49161  69.9985  94.0685 0003919 281.5005 350.7996 14.98319348  3578,6950.226,96.108,574.815,569.367,0.0
49161.0,STARLINK-3080,PAYLOAD,2022-02-07 22:00:00,14.9832106,0.0003875,69.9983,93.2278,277.444,352.3492,0.0020197,0.00024084,0.0,0 STARLINK-3080,1 49161U 21082AH  22038.91667824  .00024084  00000-0  20197-2 0  9991,2 49161  69.9983  93.2278 0003875 277.4440 352.3492 14.98321060 23758,6950.221,96.108,574.779,569.3919999999998,0.0
49161.0,STARLINK-3080,PAYLOAD,2022-02-08 14:00:01,14.98329066,0.0003978,69.9986,91.5467,280.733,344.0498,0.0031463,0.00037652,0.0,0 STARLINK-3080,1 49161U 21082AH  22039.58334491  .00037652  00000-0  31463-2 0  9999,2 49161  69.9986  91.5467 0003978 280.7330 344.0498 14.98329066  3577,6950.196,96.107,574.826,569.2959999999998,0.0
49161.0,STARLINK-3080,PAYLOAD,2022-02-08 22:00:01,14.98335071,0.0003902,69.9986,90.706,276.7496,345.6012,-0.0012008,-0.00014394,0.0,0 STARLINK-3080,1 49161U 21082AH  22039.91668981 -.00014394  00000-0 -12008-2 0  9994,2 49161  69.9986  90.7060 0003902 276.7496 345.6012 14.98335071 23903,6950.177,96.107,574.754,569.33,0.0
49161.0,STARLINK-3080,PAYLOAD,2022-02-09 12:51:20,14.98330928,0.0003849,69.9968,89.1455,276.7613,83.3108,4.28e-05,4.18e-06,0.0,0 STARLINK-3080,1 49161U 21082AH  22040.53565916  .00000418  00000-0  42800-4 0  9993,2 49161  69.9968  89.1455 0003849 276.7613  83.3108 14.98330928 23991,6950.19,96.107,574.73,569.38,0.0
49161.0,STARLINK-3080,PAYLOAD,2022-02-09 22:00:00,14.98304559,0.0003921,69.9988,88.1844,276.509,338.233,0.0033522,0.0004011,0.0,0 STARLINK-3080,1 49161U 21082AH  22040.91667824  .00040110  00000-0  33522-2 0  9998,2 49161  69.9988  88.1844 0003921 276.5090 338.2330 14.98304559 24050,6950.272,96.109,574.862,569.411,0.0
49161.0,STARLINK-3080,PAYLOAD,2022-02-10 12:53:21,14.98339286,0.0003897,69.9968,86.6202,276.9048,83.1668,7.3309e-05,7.82e-06,0.0,0 STARLINK-3080,1 49161U 21082AH  22041.53705132  .00000782  00000-0  73309-4 0  9992,2 49161  69.9968  86.6202 0003897 276.9048  83.1668 14.98339286 24143,6950.1640000000025,96.106,574.738,569.321,0.0
49161.0,STARLINK-3080,PAYLOAD,2022-02-10 14:00:01,14.98320568,0.0003989,69.9989,86.5034,280.5663,329.2033,0.0029004,0.00034679,0.0,0 STARLINK-3080,1 49161U 21082AH  22041.58335648  .00034679  00000-0  29004-2 0  9991,2 49161  69.9989  86.5034 0003989 280.5663 329.2033 14.98320568 24158,6950.222,96.108,574.86,569.315,0.0
